{
  "type": "FeatureCollection",
  "features": [
    {
      "type": "Feature",
      "properties": {
        "norad_id": 63632,
        "name": "SHENZHOU-20 (SZ-20)",
        "group": "stations",
        "lat": -37.40162915810666,
        "lon": -84.37732231467542,
        "alt_km": 396.4940290467348,
        "timestamp": "2025-12-09T14:52:24.958878+00:00",
        "meta_object_name": "SHENZHOU-20 (SZ-20)",
        "meta_object_id": "2025-082A",
        "meta_epoch": "2025-12-09T04:35:44.551104",
        "meta_mean_motion": 15.58940873,
        "meta_eccentricity": 0.00089717,
        "meta_inclination": 41.468,
        "meta_ra_of_asc_node": 38.2458,
        "meta_arg_of_pericenter": 2.1097,
        "meta_mean_anomaly": 357.9778,
        "meta_ephemeris_type": 0,
        "meta_classification_type": "U",
        "meta_norad_cat_id": 63632,
        "meta_element_set_no": 999,
        "meta_rev_at_epoch": 25530,
        "meta_bstar": 0.00038224086,
        "meta_mean_motion_dot": 0.00030369,
        "meta_mean_motion_ddot": 0,
        "tle_line1": "1 63632U 25082A   25343.19148786  .00030369  00000+0  38224-3 0  9990",
        "tle_line2": "2 63632  41.4680  38.2458 0008971   2.1097 357.9778 15.58940873255300"
      },
      "geometry": {
        "type": "Point",
        "coordinates": [
          -84.37732231467542,
          -37.40162915810666
        ]
      }
    },
    {
      "type": "Feature",
      "properties": {
        "norad_id": 64751,
        "name": "PROGRESS-MS 31",
        "group": "stations",
        "lat": -48.71421032360152,
        "lon": 42.38715285764971,
        "alt_km": 420.85051972553447,
        "timestamp": "2025-12-09T14:52:24.958888+00:00",
        "meta_object_name": "PROGRESS-MS 31",
        "meta_object_id": "2025-146A",
        "meta_epoch": "2025-12-09T04:29:48.234912",
        "meta_mean_motion": 15.4943846,
        "meta_eccentricity": 0.00033664,
        "meta_inclination": 51.6308,
        "meta_ra_of_asc_node": 160.0685,
        "meta_arg_of_pericenter": 223.6321,
        "meta_mean_anomaly": 136.4401,
        "meta_ephemeris_type": 0,
        "meta_classification_type": "U",
        "meta_norad_cat_id": 64751,
        "meta_element_set_no": 999,
        "meta_rev_at_epoch": 675,
        "meta_bstar": 0.0002526091,
        "meta_mean_motion_dot": 0.00013707,
        "meta_mean_motion_ddot": 0,
        "tle_line1": "1 64751U 25146A   25343.18736383  .00013707  00000+0  25261-3 0  9993",
        "tle_line2": "2 64751  51.6308 160.0685 0003366 223.6321 136.4401 15.49438460  6752"
      },
      "geometry": {
        "type": "Point",
        "coordinates": [
          42.38715285764971,
          -48.71421032360152
        ]
      }
    },
    {
      "type": "Feature",
      "properties": {
        "norad_id": 64786,
        "name": "TIANZHOU-9",
        "group": "stations",
        "lat": -37.40162958796326,
        "lon": -84.37732077449715,
        "alt_km": 396.49402894707964,
        "timestamp": "2025-12-09T14:52:24.958898+00:00",
        "meta_object_name": "TIANZHOU-9",
        "meta_object_id": "2025-149A",
        "meta_epoch": "2025-12-09T04:35:44.551104",
        "meta_mean_motion": 15.58940873,
        "meta_eccentricity": 0.00089717,
        "meta_inclination": 41.468,
        "meta_ra_of_asc_node": 38.2458,
        "meta_arg_of_pericenter": 2.1097,
        "meta_mean_anomaly": 357.9778,
        "meta_ephemeris_type": 0,
        "meta_classification_type": "U",
        "meta_norad_cat_id": 64786,
        "meta_element_set_no": 999,
        "meta_rev_at_epoch": 25530,
        "meta_bstar": 0.00038224086,
        "meta_mean_motion_dot": 0.00030369,
        "meta_mean_motion_ddot": 0,
        "tle_line1": "1 64786U 25149A   25343.19148786  .00030369  00000+0  38224-3 0  9995",
        "tle_line2": "2 64786  41.4680  38.2458 0008971   2.1097 357.9778 15.58940873255301"
      },
      "geometry": {
        "type": "Point",
        "coordinates": [
          -84.37732077449715,
          -37.40162958796326
        ]
      }
    },
    {
      "type": "Feature",
      "properties": {
        "norad_id": 65077,
        "name": "CREW DRAGON 11",
        "group": "stations",
        "lat": -48.71421078151749,
        "lon": 42.387154789326814,
        "alt_km": 420.8505197648992,
        "timestamp": "2025-12-09T14:52:24.958909+00:00",
        "meta_object_name": "CREW DRAGON 11",
        "meta_object_id": "2025-166A",
        "meta_epoch": "2025-12-09T04:29:48.234912",
        "meta_mean_motion": 15.4943846,
        "meta_eccentricity": 0.00033664,
        "meta_inclination": 51.6308,
        "meta_ra_of_asc_node": 160.0685,
        "meta_arg_of_pericenter": 223.6321,
        "meta_mean_anomaly": 136.4401,
        "meta_ephemeris_type": 0,
        "meta_classification_type": "U",
        "meta_norad_cat_id": 65077,
        "meta_element_set_no": 999,
        "meta_rev_at_epoch": 214,
        "meta_bstar": 0.0002526091,
        "meta_mean_motion_dot": 0.00013707,
        "meta_mean_motion_ddot": 0,
        "tle_line1": "1 65077U 25166A   25343.18736383  .00013707  00000+0  25261-3 0  9997",
        "tle_line2": "2 65077  51.6308 160.0685 0003366 223.6321 136.4401 15.49438460  2143"
      },
      "geometry": {
        "type": "Point",
        "coordinates": [
          42.387154789326814,
          -48.71421078151749
        ]
      }
    },
    {
      "type": "Feature",
      "properties": {
        "norad_id": 65304,
        "name": "DRAGON CRS-33",
        "group": "stations",
        "lat": -48.71421099957242,
        "lon": 42.387155709171964,
        "alt_km": 420.8505197836457,
        "timestamp": "2025-12-09T14:52:24.958919+00:00",
        "meta_object_name": "DRAGON CRS-33",
        "meta_object_id": "2025-186A",
        "meta_epoch": "2025-12-09T04:29:48.234912",
        "meta_mean_motion": 15.4943846,
        "meta_eccentricity": 0.00033664,
        "meta_inclination": 51.6308,
        "meta_ra_of_asc_node": 160.0685,
        "meta_arg_of_pericenter": 223.6321,
        "meta_mean_anomaly": 136.4401,
        "meta_ephemeris_type": 0,
        "meta_classification_type": "U",
        "meta_norad_cat_id": 65304,
        "meta_element_set_no": 999,
        "meta_rev_at_epoch": 11,
        "meta_bstar": 0.0002526091,
        "meta_mean_motion_dot": 0.00013707,
        "meta_mean_motion_ddot": 0,
        "tle_line1": "1 65304U 25186A   25343.18736383  .00013707  00000+0  25261-3 0  9992",
        "tle_line2": "2 65304  51.6308 160.0685 0003366 223.6321 136.4401 15.49438460   111"
      },
      "geometry": {
        "type": "Point",
        "coordinates": [
          42.387155709171964,
          -48.71421099957242
        ]
      }
    },
    {
      "type": "Feature",
      "properties": {
        "norad_id": 65586,
        "name": "PROGRESS-MS 32",
        "group": "stations",
        "lat": -48.71421121762761,
        "lon": 42.38715662901811,
        "alt_km": 420.8505198023895,
        "timestamp": "2025-12-09T14:52:24.958929+00:00",
        "meta_object_name": "PROGRESS-MS 32",
        "meta_object_id": "2025-204A",
        "meta_epoch": "2025-12-09T04:29:48.234912",
        "meta_mean_motion": 15.4943846,
        "meta_eccentricity": 0.00033664,
        "meta_inclination": 51.6308,
        "meta_ra_of_asc_node": 160.0685,
        "meta_arg_of_pericenter": 223.6321,
        "meta_mean_anomaly": 136.4401,
        "meta_ephemeris_type": 0,
        "meta_classification_type": "U",
        "meta_norad_cat_id": 65586,
        "meta_element_set_no": 999,
        "meta_rev_at_epoch": 27,
        "meta_bstar": 0.0002526091,
        "meta_mean_motion_dot": 0.00013707,
        "meta_mean_motion_ddot": 0,
        "tle_line1": "1 65586U 25204A   25343.18736383  .00013707  00000+0  25261-3 0  9995",
        "tle_line2": "2 65586  51.6308 160.0685 0003366 223.6321 136.4401 15.49438460   270"
      },
      "geometry": {
        "type": "Point",
        "coordinates": [
          42.38715662901811,
          -48.71421121762761
        ]
      }
    },
    {
      "type": "Feature",
      "properties": {
        "norad_id": 65616,
        "name": "CYGNUS NG-23",
        "group": "stations",
        "lat": -48.71421143568292,
        "lon": 42.38715754886495,
        "alt_km": 420.8505198211351,
        "timestamp": "2025-12-09T14:52:24.958939+00:00",
        "meta_object_name": "CYGNUS NG-23",
        "meta_object_id": "2025-208A",
        "meta_epoch": "2025-12-09T04:29:48.234912",
        "meta_mean_motion": 15.4943846,
        "meta_eccentricity": 0.00033664,
        "meta_inclination": 51.6308,
        "meta_ra_of_asc_node": 160.0685,
        "meta_arg_of_pericenter": 223.6321,
        "meta_mean_anomaly": 136.4401,
        "meta_ephemeris_type": 0,
        "meta_classification_type": "U",
        "meta_norad_cat_id": 65616,
        "meta_element_set_no": 999,
        "meta_rev_at_epoch": 22,
        "meta_bstar": 0.0002526091,
        "meta_mean_motion_dot": 0.00013707,
        "meta_mean_motion_ddot": 0,
        "tle_line1": "1 65616U 25208A   25343.18736383  .00013707  00000+0  25261-3 0  9993",
        "tle_line2": "2 65616  51.6308 160.0685 0003366 223.6321 136.4401 15.49438460   229"
      },
      "geometry": {
        "type": "Point",
        "coordinates": [
          42.38715754886495,
          -48.71421143568292
        ]
      }
    }
  ]
}